COSMOS 2433 (720)       
1 32275U 07052A   22116.88268777 -.00000084  00000+0  00000+0 0  9999
2 32275  66.0826   6.3818 0001639 300.8180 356.5606  2.13103859112865
COSMOS 2432 (719)       
1 32276U 07052B   22116.79424377 -.00000085  00000+0  00000+0 0  9991
2 32276  66.0972   6.4839 0011137 336.5509 201.4519  2.13103546112861
COSMOS 2434 (721)       
1 32393U 07065A   22116.71833625 -.00000041  00000+0  00000+0 0  9999
2 32393  64.3940 243.1920 0003745  85.5579 335.1169  2.13102975111570
COSMOS 2436 (723)       
1 32395U 07065C   22116.56608596 -.00000040  00000+0  00000+0 0  9990
2 32395  64.4034 243.2518 0015684   5.0977  74.6888  2.13103041111506
COSMOS 2456 (730)       
1 36111U 09070A   22116.59123613  .00000089  00000+0  00000+0 0  9995
2 36111  64.3411 122.8368 0006310 300.9667 188.4938  2.13099165 96231
COSMOS 2457 (733)       
1 36112U 09070B   22116.72826985  .00000089  00000+0  00000+0 0  9993
2 36112  64.3232 122.7074 0004368 198.7482 162.7236  2.13101464 96248
COSMOS 2461 (735)       
1 36401U 10007B   22116.44581582 -.00000084  00000+0  00000+0 0  9992
2 36401  65.9692   5.2404 0022170   7.8316 171.8836  2.13103862 94581
COSMOS 2460 (732)       
1 36402U 10007C   22116.51270626 -.00000084  00000+0  00000+0 0  9995
2 36402  65.9565   5.1900 0002184  22.3054 156.6488  2.13106403 94583
COSMOS 2464 (736)       
1 37139U 10041C   22116.59563382 -.00000041  00000+0  00000+0 0  9996
2 37139  63.9932 242.2954 0029321  13.1687 171.9960  2.13100811 90647
COSMOS 2476 (744)       
1 37867U 11064A   22116.71679690  .00000091  00000+0  00000+0 0  9998
2 37867  64.6296 124.1666 0023168 241.2351 249.6239  2.13101888 81589
COSMOS 2477 (745)       
1 37868U 11064B   22116.78313211  .00000090  00000+0  00000+0 0  9999
2 37868  64.6373 124.2288 0020613 242.7033 117.1864  2.13101761 81541
COSMOS 2475 (743)       
1 37869U 11064C   22116.83600297  .00000090  00000+0  00000+0 0  9999
2 37869  64.6451 124.2348 0025183 258.5580  99.8443  2.13101934 81546
COSMOS 2485 (747)       
1 39155U 13019A   22116.73452045  .00000091  00000+0  00000+0 0  9997
2 39155  64.7936 124.5836 0023526 237.1282 311.7215  2.13101930 70054
COSMOS 2492 (754)       
1 39620U 14012A   22116.61489529 -.00000083  00000+0  00000+0 0  9994
2 39620  65.8433   4.8753 0014095 330.3006 161.3110  2.13103258 63009
COSMOS 2500 (755)       
1 40001U 14032A   22116.85604904 -.00000083  00000+0  00000+0 0  9993
2 40001  65.7822   4.7318 0004246 203.5205 331.9019  2.13102557 61226
COSMOS 2501 (702K)      
1 40315U 14075A   22116.42131381 -.00000040  00000+0  00000+0 0  9998
2 40315  63.7010 242.9903 0017265 206.3507 163.2835  2.13101504 57620
COSMOS 2514 (751)       
1 41330U 16008A   22116.38788982 -.00000084  00000+0  00000+0 0  9992
2 41330  65.5825   4.4525 0007797 211.2584 148.7387  2.13102746 48384
COSMOS 2516 (753)       
1 41554U 16032A   22116.61199839 -.00000041  00000+0  00000+0 0  9993
2 41554  63.9283 243.2464 0013541 213.3030 220.2931  2.13106003 45995
COSMOS 2522 (752)       
1 42939U 17055A   22116.66688144 -.00000041  00000+0  00000+0 0  9994
2 42939  64.1610 243.6242 0006233 238.4336  94.9441  2.13101907 35747
COSMOS 2527 (756)       
1 43508U 18053A   22116.38401243  .00000092  00000+0  00000+0 0  9993
2 43508  64.9569 124.5841 0009762 242.0614 266.4234  2.13102632 30032
COSMOS 2529 (757)       
1 43687U 18086A   22116.72887443 -.00000041  00000+0  00000+0 0  9990
2 43687  64.3772 243.9230 0007865 269.9686  66.4887  2.13102188 27053
COSMOS 2534 (758)       
1 44299U 19030A   22116.19002896 -.00000037  00000+0  00000+0 0  9997
2 44299  64.4488 243.8223 0010796 291.6704 126.0065  2.13102102 22691
COSMOS 2544 (759)       
1 44850U 19088A   22116.72634898  .00000091  00000+0  00000+0 0  9994
2 44850  64.9415 124.4263 0014650 263.6419 190.9800  2.13102395 18474
COSMOS 2545 (760)       
1 45358U 20018A   22116.48724503 -.00000085  00000+0  00000+0 0  9993
2 45358  64.9213   5.1008 0007809 260.1951 220.5412  2.13102764 16429
COSMOS 2547 (705K)      
1 46805U 20075A   22116.61396135 -.00000040  00000+0  00000+0 0  9996
2 46805  64.6717 243.2159 0005965 243.2127 187.1934  2.13103194 11670
